GOES 12                 
1 26871U 01031A   24098.44436821 -.00000019  00000+0  00000+0 0  9993
2 26871  10.7183  43.6210 0007365 308.6418 267.3355  0.99134977 82823
